[{"OBJECT_NAME":"FLOCK 4G-29","OBJECT_ID":"2025-009AK","EPOCH":"2026-03-09T19:33:04.927968","MEAN_MOTION":15.27382318,"ECCENTRICITY":0.00013664,"INCLINATION":97.4058,"RA_OF_ASC_NODE":151.3683,"ARG_OF_PERICENTER":288.0502,"MEAN_ANOMALY":72.0588,"EPHEMERIS_TYPE":0,"CLASSIFICATION_TYPE":"U","NORAD_CAT_ID":62642,"ELEMENT_SET_NO":999,"REV_AT_EPOCH":6372,"BSTAR":0.0004183135,"MEAN_MOTION_DOT":0.00011147,"MEAN_MOTION_DDOT":0},{"OBJECT_NAME":"STARLINK-34016","OBJECT_ID":"2025-101Y","EPOCH":"2026-03-09T04:51:00.226944","MEAN_MOTION":15.27580867,"ECCENTRICITY":0.00015191,"INCLINATION":43.0051,"RA_OF_ASC_NODE":0.4524,"ARG_OF_PERICENTER":274.3402,"MEAN_ANOMALY":85.7276,"EPHEMERIS_TYPE":0,"CLASSIFICATION_TYPE":"U","NORAD_CAT_ID":64016,"ELEMENT_SET_NO":999,"REV_AT_EPOCH":4698,"BSTAR":0.001165481,"MEAN_MOTION_DOT":0.00031949,"MEAN_MOTION_DDOT":0}]
