FLOCK 4G-29             
1 62642U 25009AK  26068.81464037  .00011147  00000+0  41831-3 0  9994
2 62642  97.4058 151.3683 0001366 288.0502  72.0588 15.27382318 63721
STARLINK-34016          
1 64016U 25101Y   26068.20208596  .00031949  00000+0  11655-2 0  9995
2 64016  43.0051   0.4524 0001519 274.3402  85.7276 15.27580867 46986
